MALLIGYONG-1            
1 58400U 23179A   24037.88152802  .00008364  00000+0  36539-3 0  9998
2 58400  97.4233 286.6514 0016100  13.5978 346.5689 15.22245342 11755
